CTC2_L_00455001-01
1 56763U 24173E   26070.40848380  .00000000  00000+0  00000-0 0  9993
2 56763  43.0000   0.0000 0000000   0.0000   0.0000 15.76628882    10
CTC2_L_00455001-02
1 56764U 23209WU  26070.40848380  .00000000  00000+0  00000-0 0  9993
2 56764  43.0000   0.0000 0000000   0.0000 180.0000 15.76628882    10
CTC2_L_00455002-01
1 56765U 23021KJ  26070.40848380  .00000000  00000+0  00000-0 0  9996
2 56765  43.0000  12.0000 0000000   0.0000  24.0000 15.76628882    11
CTC2_L_00455002-02
1 56766U 25166EG  26070.40848380  .00000000  00000+0  00000-0 0  9999
2 56766  43.0000  12.0000 0000000   0.0000 204.0000 15.76628882    12
CTC2_L_00455003-01
1 56767U 22421IK  26070.40848380  .00000000  00000+0  00000-0 0  9991
2 56767  43.0000  24.0000 0000000   0.0000  48.0000 15.76628882    12
CTC2_L_00455003-02
1 56768U 25605RM  26070.40848380  .00000000  00000+0  00000-0 0  9999
2 56768  43.0000  24.0000 0000000   0.0000 228.0000 15.76628882    13
CTC2_L_00455004-01
1 56769U 22612Z   26070.40848380  .00000000  00000+0  00000-0 0  9995
2 56769  43.0000  36.0000 0000000   0.0000  72.0000 15.76628882    14
CTC2_L_00455004-02
1 56770U 23683QE  26070.40848380  .00000000  00000+0  00000-0 0  9996
2 56770  43.0000  36.0000 0000000   0.0000 252.0000 15.76628882    16
CTC2_L_00455005-01
1 56771U 24290NW  26070.40848380  .00000000  00000+0  00000-0 0  9992
2 56771  43.0000  48.0000 0000000   0.0000  96.0000 15.76628882    16
CTC2_L_00455005-02
1 56772U 22005CS  26070.40848380  .00000000  00000+0  00000-0 0  9995
2 56772  43.0000  48.0000 0000000   0.0000 276.0000 15.76628882    17
CTC2_L_00455006-01
1 56773U 23843AJ  26070.40848380  .00000000  00000+0  00000-0 0  9997
2 56773  43.0000  60.0000 0000000   0.0000 120.0000 15.76628882    10
CTC2_L_00455006-02
1 56774U 26636W   26070.40848380  .00000000  00000+0  00000-0 0  9991
2 56774  43.0000  60.0000 0000000   0.0000 300.0000 15.76628882    11
CTC2_L_00455007-01
1 56775U 22148PB  26070.40848380  .00000000  00000+0  00000-0 0  9996
2 56775  43.0000  72.0000 0000000   0.0000 144.0000 15.76628882    11
CTC2_L_00455007-02
1 56776U 22681OV  26070.40848380  .00000000  00000+0  00000-0 0  9999
2 56776  43.0000  72.0000 0000000   0.0000 324.0000 15.76628882    12
CTC2_L_00455008-01
1 56777U 23366EY  26070.40848380  .00000000  00000+0  00000-0 0  9991
2 56777  43.0000  84.0000 0000000   0.0000 168.0000 15.76628882    12
CTC2_L_00455008-02
1 56778U 23726H   26070.40848380  .00000000  00000+0  00000-0 0  9992
2 56778  43.0000  84.0000 0000000   0.0000 348.0000 15.76628882    13
CTC2_L_00455009-01
1 56779U 25506IN  26070.40848380  .00000000  00000+0  00000-0 0  9991
2 56779  43.0000  96.0000 0000000   0.0000 192.0000 15.76628882    14
CTC2_L_00455009-02
1 56780U 24521NU  26070.40848380  .00000000  00000+0  00000-0 0  9999
2 56780  43.0000  96.0000 0000000   0.0000  12.0000 15.76628882    17
CTC2_L_00455010-01
1 56781U 23626PY  26070.40848380  .00000000  00000+0  00000-0 0  9995
2 56781  43.0000 108.0000 0000000   0.0000 216.0000 15.76628882    18
CTC2_L_00455010-02
1 56782U 22770OG  26070.40848380  .00000000  00000+0  00000-0 0  9995
2 56782  43.0000 108.0000 0000000   0.0000  36.0000 15.76628882    19
CTC2_L_00455011-01
1 56783U 26046VC  26070.40848380  .00000000  00000+0  00000-0 0  9996
2 56783  43.0000 120.0000 0000000   0.0000 240.0000 15.76628882    11
CTC2_L_00455011-02
1 56784U 25318PC  26070.40848380  .00000000  00000+0  00000-0 0  9998
2 56784  43.0000 120.0000 0000000   0.0000  60.0000 15.76628882    12
CTC2_L_00455012-01
1 56785U 26326VA  26070.40848380  .00000000  00000+0  00000-0 0  9999
2 56785  43.0000 132.0000 0000000   0.0000 264.0000 15.76628882    12
CTC2_L_00455012-02
1 56786U 22888NP  26070.40848380  .00000000  00000+0  00000-0 0  9999
2 56786  43.0000 132.0000 0000000   0.0000  84.0000 15.76628882    13
CTC2_L_00455013-01
1 56787U 23500ZD  26070.40848380  .00000000  00000+0  00000-0 0  9992
2 56787  43.0000 144.0000 0000000   0.0000 288.0000 15.76628882    13
CTC2_L_00455013-02
1 56788U 23856AD  26070.40848380  .00000000  00000+0  00000-0 0  9997
2 56788  43.0000 144.0000 0000000   0.0000 108.0000 15.76628882    15
CTC2_L_00455014-01
1 56789U 26967MY  26070.40848380  .00000000  00000+0  00000-0 0  9994
2 56789  43.0000 156.0000 0000000   0.0000 312.0000 15.76628882    16
CTC2_L_00455014-02
1 56790U 25501JT  26070.40848380  .00000000  00000+0  00000-0 0  9999
2 56790  43.0000 156.0000 0000000   0.0000 132.0000 15.76628882    18
CTC2_L_00455015-01
1 56791U 26097KJ  26070.40848380  .00000000  00000+0  00000-0 0  9991
2 56791  43.0000 168.0000 0000000   0.0000 336.0000 15.76628882    18
CTC2_L_00455015-02
1 56792U 24269DC  26070.40848380  .00000000  00000+0  00000-0 0  9991
2 56792  43.0000 168.0000 0000000   0.0000 156.0000 15.76628882    19
CTC2_L_00455016-01
1 56793U 25829XD  26070.40848380  .00000000  00000+0  00000-0 0  9995
2 56793  43.0000 180.0000 0000000   0.0000   0.0000 15.76628882    12
CTC2_L_00455016-02
1 56794U 23198J   26070.40848380  .00000000  00000+0  00000-0 0  9993
2 56794  43.0000 180.0000 0000000   0.0000 180.0000 15.76628882    12
CTC2_L_00455017-01
1 56795U 23163AS  26070.40848380  .00000000  00000+0  00000-0 0  9996
2 56795  43.0000 192.0000 0000000   0.0000  24.0000 15.76628882    13
CTC2_L_00455017-02
1 56796U 24494SF  26070.40848380  .00000000  00000+0  00000-0 0  9995
2 56796  43.0000 192.0000 0000000   0.0000 204.0000 15.76628882    14
CTC2_L_00455018-01
1 56797U 23129FE  26070.40848380  .00000000  00000+0  00000-0 0  9990
2 56797  43.0000 204.0000 0000000   0.0000  48.0000 15.76628882    15
CTC2_L_00455018-02
1 56798U 25555NU  26070.40848380  .00000000  00000+0  00000-0 0  9996
2 56798  43.0000 204.0000 0000000   0.0000 228.0000 15.76628882    16
CTC2_L_00455019-01
1 56799U 26464XY  26070.40848380  .00000000  00000+0  00000-0 0  9997
2 56799  43.0000 216.0000 0000000   0.0000  72.0000 15.76628882    17
CTC2_L_00455019-02
1 56800U 24434KT  26070.40848380  .00000000  00000+0  00000-0 0  9995
2 56800  43.0000 216.0000 0000000   0.0000 252.0000 15.76628882    10
CTC2_L_00455020-01
1 56801U 26924HV  26070.40848380  .00000000  00000+0  00000-0 0  9992
2 56801  43.0000 228.0000 0000000   0.0000  96.0000 15.76628882    10
CTC2_L_00455020-02
1 56802U 24066HG  26070.40848380  .00000000  00000+0  00000-0 0  9998
2 56802  43.0000 228.0000 0000000   0.0000 276.0000 15.76628882    11
CTC2_L_00455021-01
1 56803U 25390EW  26070.40848380  .00000000  00000+0  00000-0 0  9990
2 56803  43.0000 240.0000 0000000   0.0000 120.0000 15.76628882    14
CTC2_L_00455021-02
1 56804U 22594PH  26070.40848380  .00000000  00000+0  00000-0 0  9994
2 56804  43.0000 240.0000 0000000   0.0000 300.0000 15.76628882    15
CTC2_L_00455022-01
1 56805U 25735GJ  26070.40848380  .00000000  00000+0  00000-0 0  9995
2 56805  43.0000 252.0000 0000000   0.0000 144.0000 15.76628882    15
CTC2_L_00455022-02
1 56806U 25325YI  26070.40848380  .00000000  00000+0  00000-0 0  9991
2 56806  43.0000 252.0000 0000000   0.0000 324.0000 15.76628882    16
CTC2_L_00455023-01
1 56807U 26377IL  26070.40848380  .00000000  00000+0  00000-0 0  9990
2 56807  43.0000 264.0000 0000000   0.0000 168.0000 15.76628882    16
CTC2_L_00455023-02
1 56808U 22303BL  26070.40848380  .00000000  00000+0  00000-0 0  9996
2 56808  43.0000 264.0000 0000000   0.0000 348.0000 15.76628882    17
CTC2_L_00455024-01
1 56809U 23772KR  26070.40848380  .00000000  00000+0  00000-0 0  9998
2 56809  43.0000 276.0000 0000000   0.0000 192.0000 15.76628882    18
CTC2_L_00455024-02
1 56810U 25707KD  26070.40848380  .00000000  00000+0  00000-0 0  9990
2 56810  43.0000 276.0000 0000000   0.0000  12.0000 15.76628882    11
CTC2_L_00455025-01
1 56811U 22552JN  26070.40848380  .00000000  00000+0  00000-0 0  9996
2 56811  43.0000 288.0000 0000000   0.0000 216.0000 15.76628882    11
CTC2_L_00455025-02
1 56812U 23844LB  26070.40848380  .00000000  00000+0  00000-0 0  9992
2 56812  43.0000 288.0000 0000000   0.0000  36.0000 15.76628882    12
CTC2_L_00455026-01
1 56813U 25041FE  26070.40848380  .00000000  00000+0  00000-0 0  9994
2 56813  43.0000 300.0000 0000000   0.0000 240.0000 15.76628882    15
CTC2_L_00455026-02
1 56814U 25895WJ  26070.40848380  .00000000  00000+0  00000-0 0  9992
2 56814  43.0000 300.0000 0000000   0.0000  60.0000 15.76628882    16
CTC2_L_00455027-01
1 56815U 22292MM  26070.40848380  .00000000  00000+0  00000-0 0  9991
2 56815  43.0000 312.0000 0000000   0.0000 264.0000 15.76628882    16
CTC2_L_00455027-02
1 56816U 24387OM  26070.40848380  .00000000  00000+0  00000-0 0  9999
2 56816  43.0000 312.0000 0000000   0.0000  84.0000 15.76628882    17
CTC2_L_00455028-01
1 56817U 25003TE  26070.40848380  .00000000  00000+0  00000-0 0  9996
2 56817  43.0000 324.0000 0000000   0.0000 288.0000 15.76628882    17
CTC2_L_00455028-02
1 56818U 26318SL  26070.40848380  .00000000  00000+0  00000-0 0  9997
2 56818  43.0000 324.0000 0000000   0.0000 108.0000 15.76628882    19
CTC2_L_00455029-01
1 56819U 25576KE  26070.40848380  .00000000  00000+0  00000-0 0  9993
2 56819  43.0000 336.0000 0000000   0.0000 312.0000 15.76628882    10
CTC2_L_00455029-02
1 56820U 23311OP  26070.40848380  .00000000  00000+0  00000-0 0  9990
2 56820  43.0000 336.0000 0000000   0.0000 132.0000 15.76628882    12
CTC2_L_00455030-01
1 56821U 25582OQ  26070.40848380  .00000000  00000+0  00000-0 0  9993
2 56821  43.0000 348.0000 0000000   0.0000 336.0000 15.76628882    12
CTC2_L_00455030-02
1 56822U 23845PU  26070.40848380  .00000000  00000+0  00000-0 0  9994
2 56822  43.0000 348.0000 0000000   0.0000 156.0000 15.76628882    13
